AddressExtras,AddressKey,AddressLine1,AddressLine2,AddressTypeCode,CarrierRoute,City,CityAbbreviation,CompanyName,CountryCode,CountryName,DeliveryIndicator,DeliveryPointCheckDigit,DeliveryPointCode,EmailAddress,Latitude,Longitude,MelissaAddressKey,MelissaAddressKeyBase,NameFull,PhoneNumber,PostalCode,RecordExtras,RecordID,Reserved,Results,State,StateName,UTC,UrbanizationName
 ,92617550315,515 E Peltason Dr, ,S,C003,Irvine,Irvine, ,US,United States of America,R,6,15, ,33.642963,-117.836463,1734132018, , , ,92617-5503, ,1, ,"AC01,AS01,AS17,GS05",CA,California,-08:00, 
 ,92617402304,4 Alcott Ct, ,S,C005,Irvine,Irvine, ,US,United States of America,R,2,04, ,33.640275,-117.841219,9933525478, , , ,92617-4023, ,1, ,"AC01,AS01,GS05",CA,California,-08:00, 
 ,92617407816,16 Joyce Ct, ,S,C005,Irvine,Irvine, ,US,United States of America,R,9,16, ,33.634868,-117.841251,5077460919, , , ,92617-4078, ,1, ,"AC01,AS01,GS05",CA,California,-08:00, 
 ,92617408711,11 Murasaki St, ,S,C004,Irvine,Irvine, ,US,United States of America,R,4,11, ,33.640608,-117.835352,9987920127, , , ,92617-4087, ,1, ,"AC01,AS01,GS05",CA,California,-08:00, 
 ,92617406910,10 Whistler Ct, ,S,C005,Irvine,Irvine, ,US,United States of America,R,5,10, ,33.635299,-117.840373,5154333585, , , ,92617-4069, ,1, ,"AC01,AS01,GS05",CA,California,-08:00, 
 ,92617407125,25 Harvey Ct, ,S,C005,Irvine,Irvine, ,US,United States of America,R,6,25, ,33.636319,-117.842609,9913158161, , , ,92617-4071, ,1, ,"AC01,AS01,GS05",CA,California,-08:00, 
 ,92617408918,18 Murasaki St, ,S,C004,Irvine,Irvine, ,US,United States of America,R,5,18, ,33.640480,-117.834396,9973045108, , , ,92617-4089, ,1, ,"AC01,AS01,GS05",CA,California,-08:00, 
 ,92617403820,20 Newton Ct, ,S,C005,Irvine,Irvine, ,US,United States of America,R,8,20, ,33.638972,-117.839477,5135870759, , , ,92617-4038, ,1, ,"AC01,AS01,GS05",CA,California,-08:00, 
 ,92617404726,26 McClintock Ct, ,S,C005,Irvine,Irvine, ,US,United States of America,R,2,26, ,33.634736,-117.840604,5048873218, , , ,92617-4047, ,1, ,"AC01,AS01,GS05",CA,California,-08:00, 
 ,92617403004,4 Gibbs Ct, ,S,C005,Irvine,Irvine, ,US,United States of America,R,4,04, ,33.638348,-117.843660,5065689242, , , ,92617-4030, ,1, ,"AC01,AS01,GS05",CA,California,-08:00, 
 ,92617406926,26 Whistler Ct, ,S,C005,Irvine,Irvine, ,US,United States of America,R,8,26, ,33.635755,-117.840366,5118532476, , , ,92617-4069, ,1, ,"AC01,AS01,GS05",CA,California,-08:00, 
 ,92617405720,20 Whitman Ct, ,S,C005,Irvine,Irvine, ,US,United States of America,R,7,20, ,33.636301,-117.841181,5222745396, , , ,92617-4057, ,1, ,"AC01,AS01,GS05",CA,California,-08:00, 
 ,92617405716,16 Whitman Ct, ,S,C005,Irvine,Irvine, ,US,United States of America,R,2,16, ,33.636547,-117.841026,2432488590, , , ,92617-4057, ,1, ,"AC01,AS01,GS05",CA,California,-08:00, 
 ,92617405522,22 Young, ,S,C005,Irvine,Irvine, ,US,United States of America,R,7,22, ,33.637222,-117.841091,2391963192, , , ,92617-4055, ,1, ,"AC01,AS01,GS05",CA,California,-08:00, 
 ,92617407121,21 Harvey Ct, ,S,C005,Irvine,Irvine, ,US,United States of America,R,0,21, ,33.636431,-117.842275,5319748817, , , ,92617-4071, ,1, ,"AC01,AS01,GS05",CA,California,-08:00, 
 ,92617407640,40 Gabrielino Dr, ,S,C004,Irvine,Irvine, ,US,United States of America,R,4,40, ,33.640520,-117.836050,5321994133, , , ,92617-4076, ,1, ,"AC01,AS01,GS05",CA,California,-08:00, 
 ,92617403114,14 Gibbs Ct, ,S,C005,Irvine,Irvine, ,US,United States of America,R,2,14, ,33.638110,-117.842592,2410390950, , , ,92617-4031, ,1, ,"AC01,AS01,GS05",CA,California,-08:00, 
 ,92617406667,67 Whitman Ct, ,S,C005,Irvine,Irvine, ,US,United States of America,R,6,67, ,33.637096,-117.838402,2367592712, , , ,92617-4066, ,1, ,"AC01,AS01,GS05",CA,California,-08:00, 
 ,92617405526,26 Young, ,S,C005,Irvine,Irvine, ,US,United States of America,R,3,26, ,33.637017,-117.841442,2372238341, , , ,92617-4055, ,1, ,"AC01,AS01,GS05",CA,California,-08:00, 
 ,92617402320,20 Alcott Ct, ,S,C005,Irvine,Irvine, ,US,United States of America,R,4,20, ,33.639584,-117.841296,5425504494, , , ,92617-4023, ,1, ,"AC01,AS01,GS05",CA,California,-08:00, 
 ,92617403207,7 Gibbs Ct, ,S,C005,Irvine,Irvine, ,US,United States of America,R,9,07, ,33.638630,-117.844072,5454400198, , , ,92617-4032, ,1, ,"AC01,AS01,GS05",CA,California,-08:00, 
 ,92617409210,10 Fuertes, ,S,C004,Irvine,Irvine, ,US,United States of America,R,9,10, ,33.639814,-117.834447,5302589237, , , ,92617-4092, ,1, ,"AC01,AS01,GS05",CA,California,-08:00, 
 ,92617407117,17 Harvey Ct, ,S,C005,Irvine,Irvine, ,US,United States of America,R,5,17, ,33.636522,-117.842553,2459133316, , , ,92617-4071, ,1, ,"AC01,AS01,GS05",CA,California,-08:00, 
 ,92617402303,3 Alcott Ct, ,S,C005,Irvine,Irvine, ,US,United States of America,R,3,03, ,33.639905,-117.841701,5265537829, , , ,92617-4023, ,1, ,"AC01,AS01,GS05",CA,California,-08:00, 
 ,92617402324,24 Alcott Ct, ,S,C005,Irvine,Irvine, ,US,United States of America,R,0,24, ,33.639534,-117.841356,5390182881, , , ,92617-4023, ,1, ,"AC01,AS01,GS05",CA,California,-08:00, 
 ,92617404330,30 Perkins Ct, ,S,C004,Irvine,Irvine, ,US,United States of America,R,1,30, ,33.639789,-117.838579,5311200993, , , ,92617-4043, ,1, ,"AC01,AS01,GS05",CA,California,-08:00, 
 ,92617405401,1 Virgil Ct, ,S,C005,Irvine,Irvine, ,US,United States of America,R,1,01, ,33.638014,-117.838066,5354767316, , , ,92617-4054, ,1, ,"AC01,AS01,GS05",CA,California,-08:00, 
 ,92617408829,29 Murasaki St, ,S,C004,Irvine,Irvine, ,US,United States of America,R,4,29, ,33.639717,-117.833649,5451997790, , , ,92617-4088, ,1, ,"AC01,AS01,GS05",CA,California,-08:00, 
 ,92617408821,21 Murasaki St, ,S,C004,Irvine,Irvine, ,US,United States of America,R,2,21, ,33.640116,-117.834499,5395620183, , , ,92617-4088, ,1, ,"AC01,AS01,GS05",CA,California,-08:00, 
 ,92617405407,7 Virgil Ct, ,S,C005,Irvine,Irvine, ,US,United States of America,R,5,07, ,33.638289,-117.837748,2548067166, , , ,92617-4054, ,1, ,"AC01,AS01,GS05",CA,California,-08:00, 
 ,92617404855,55 Schubert Ct, ,S,C003,Irvine,Irvine, ,US,United States of America,R,9,55, ,33.642081,-117.837962,2751875072, , , ,92617-4048, ,1, ,"AC01,AS01,GS05",CA,California,-08:00, 
 ,92617409206,6 Fuertes, ,S,C004,Irvine,Irvine, ,US,United States of America,R,4,06, ,33.639941,-117.834788,5265975061, , , ,92617-4092, ,1, ,"AC01,AS01,GS05",CA,California,-08:00, 
 ,92617406673,73 Whitman Ct, ,S,C005,Irvine,Irvine, ,US,United States of America,R,9,73, ,33.636707,-117.837898,2557840686, , , ,92617-4066, ,1, ,"AC01,AS01,GS05",CA,California,-08:00, 
 ,92617404005,5 Owen Ct, ,S,C004,Irvine,Irvine, ,US,United States of America,R,2,05, ,33.639012,-117.838410,2688099415, , , ,92617-4040, ,1, ,"AC01,AS01,GS05",CA,California,-08:00, 
 ,92617406360,60 Whitman Ct, ,S,C005,Irvine,Irvine, ,US,United States of America,R,6,60, ,33.637323,-117.838711,2742910741, , , ,92617-4063, ,1, ,"AC01,AS01,GS05",CA,California,-08:00, 
 ,92617407814,14 Joyce Ct, ,S,C005,Irvine,Irvine, ,US,United States of America,R,1,14, ,33.634811,-117.841419,5361856402, , , ,92617-4078, ,1, ,"AC01,AS01,GS05",CA,California,-08:00, 
 ,92617405304,4 Virgil Ct, ,S,C005,Irvine,Irvine, ,US,United States of America,R,9,04, ,33.638314,-117.838416,5370115505, , , ,92617-4053, ,1, ,"AC01,AS01,GS05",CA,California,-08:00, 
 ,92617402914,14 Dickens Ct, ,S,C005,Irvine,Irvine, ,US,United States of America,R,5,14, ,33.639090,-117.842502,4244907026, , , ,92617-4029, ,1, ,"AC01,AS01,GS05",CA,California,-08:00, 
 ,92617403006,6 Gibbs Ct, ,S,C005,Irvine,Irvine, ,US,United States of America,R,2,06, ,33.638562,-117.843668,4238458199, , , ,92617-4030, ,1, ,"AC01,AS01,GS05",CA,California,-08:00, 
 ,92617402919,19 Dickens Ct, ,S,C005,Irvine,Irvine, ,US,United States of America,R,0,19, ,33.638594,-117.842428,4312730880, , , ,92617-4029, ,1, ,"AC01,AS01,GS05",CA,California,-08:00, 
 ,92617402408,8 Blake Ct, ,S,C005,Irvine,Irvine, ,US,United States of America,R,7,08, ,33.640479,-117.842079,4213481999, , , ,92617-4024, ,1, ,"AC01,AS01,GS05",CA,California,-08:00, 
 ,92617402412,12 Blake Ct, ,S,C005,Irvine,Irvine, ,US,United States of America,R,2,12, ,33.640432,-117.842350,2538936571, , , ,92617-4024, ,1, ,"AC01,AS01,GS05",CA,California,-08:00, 
 ,92617404410,10 Thompson Ct, ,S,C003,Irvine,Irvine, ,US,United States of America,R,2,10, ,33.640754,-117.839547,2626915283, , , ,92617-4044, ,1, ,"AC01,AS01,GS05",CA,California,-08:00, 
 ,92617407638,38 Gabrielino Dr, ,S,C004,Irvine,Irvine, ,US,United States of America,R,7,38, ,33.640520,-117.836050,4278285808, , , ,92617-4076, ,1, ,"AC01,AS01,GS05",CA,California,-08:00, 
 ,92617407912,12 Handel Ct, ,S,C005,Irvine,Irvine, ,US,United States of America,R,2,12, ,33.635082,-117.841831,4243075670, , , ,92617-4079, ,1, ,"AC01,AS01,GS05",CA,California,-08:00, 
 ,92617409003,3 Twain, ,S,C004,Irvine,Irvine, ,US,United States of America,R,9,03, ,33.640305,-117.835556,3282118956, , , ,92617-4090, ,1, ,"AC01,AS01,GS05",CA,California,-08:00, 
 ,92617400014,14 Russell Ct, ,S,C003,Irvine,Irvine, ,US,United States of America,R,6,14, ,33.641542,-117.839615,4304793365, , , ,92617-4000, ,1, ,"AC01,AS01,GS05",CA,California,-08:00, 
 ,92617408705,5 Murasaki St, ,S,C004,Irvine,Irvine, ,US,United States of America,R,1,05, ,33.640863,-117.835916,3295196576, , , ,92617-4087, ,1, ,"AC01,AS01,GS05",CA,California,-08:00, 
 ,92617406101,1 Zola Ct, ,S,C005,Irvine,Irvine, ,US,United States of America,R,3,01, ,33.637257,-117.837583,3315466713, , , ,92617-4061, ,1, ,"AC01,AS01,GS05",CA,California,-08:00, 
 ,92617404102,2 Owen Ct, ,S,C004,Irvine,Irvine, ,US,United States of America,R,4,02, ,33.639194,-117.839064,3297358871, , , ,92617-4041, ,1, ,"AC01,AS01,GS05",CA,California,-08:00, 
 ,92617402807,7 Dickens Ct, ,S,C005,Irvine,Irvine, ,US,United States of America,R,4,07, ,33.639214,-117.843638,4164547802, , , ,92617-4028, ,1, ,"AC01,AS01,GS05",CA,California,-08:00, 
 ,92617409511,11 Fuertes, ,S,C004,Irvine,Irvine, ,US,United States of America,R,5,11, ,33.639466,-117.834600,4426514292, , , ,92617-4095, ,1, ,"AC01,AS01,GS05",CA,California,-08:00, 
 ,92617402318,18 Alcott Ct, ,S,C005,Irvine,Irvine, ,US,United States of America,R,7,18, ,33.639677,-117.841166,4261625957, , , ,92617-4023, ,1, ,"AC01,AS01,GS05",CA,California,-08:00, 
 ,92617405127,127 Schubert Ct, ,S,C003,Irvine,Irvine, ,US,United States of America,R,6,27, ,33.642357,-117.838936,3375110295, , , ,92617-4051, ,1, ,"AC01,AS01,GS05",CA,California,-08:00, 
 ,92617408819,19 Murasaki St, ,S,C004,Irvine,Irvine, ,US,United States of America,R,5,19, ,33.640185,-117.834678,3500467124, , , ,92617-4088, ,1, ,"AC01,AS01,GS05",CA,California,-08:00, 
 ,92617402301,1 Alcott Ct, ,S,C005,Irvine,Irvine, ,US,United States of America,R,5,01, ,33.639975,-117.841670,4154095210, , , ,92617-4023, ,1, ,"AC01,AS01,GS05",CA,California,-08:00, 
 ,92617408831,31 Murasaki St, ,S,C004,Irvine,Irvine, ,US,United States of America,R,1,31, ,33.639619,-117.833480,3468178039, , , ,92617-4088, ,1, ,"AC01,AS01,GS05",CA,California,-08:00, 
 ,92617405099,99 Schubert Ct, ,S,C003,Irvine,Irvine, ,US,United States of America,R,8,99, ,33.642113,-117.839299,3409029001, , , ,92617-4050, ,1, ,"AC01,AS01,GS05",CA,California,-08:00, 
 ,92617405308,8 Virgil Ct, ,S,C005,Irvine,Irvine, ,US,United States of America,R,5,08, ,33.638498,-117.838238,3510319672, , , ,92617-4053, ,1, ,"AC01,AS01,GS05",CA,California,-08:00, 
 ,92617405125,125 Schubert Ct, ,S,C003,Irvine,Irvine, ,US,United States of America,R,8,25, ,33.642204,-117.838692,3661841010, , , ,92617-4051, ,1, ,"AC01,AS01,GS05",CA,California,-08:00, 
 ,92617402612,12 Curie Ct, ,S,C005,Irvine,Irvine, ,US,United States of America,R,0,12, ,33.639575,-117.842395,3520421884, , , ,92617-4026, ,1, ,"AC01,AS01,GS05",CA,California,-08:00, 
 ,92617404857,57 Schubert Ct, ,S,C003,Irvine,Irvine, ,US,United States of America,R,7,57, ,33.642115,-117.838044,3562382545, , , ,92617-4048, ,1, ,"AC01,AS01,GS05",CA,California,-08:00, 
 ,92617405411,11 Virgil Ct, ,S,C005,Irvine,Irvine, ,US,United States of America,R,0,11, ,33.638377,-117.837462,4419196059, , , ,92617-4054, ,1, ,"AC01,AS01,GS05",CA,California,-08:00, 
 ,92617405003,103 Schubert Ct, ,S,C003,Irvine,Irvine, ,US,United States of America,R,3,03, ,33.641930,-117.839516,4439871085, , , ,92617-4050, ,1, ,"AC01,AS01,GS05",CA,California,-08:00, 
 ,92617404324,24 Perkins Ct, ,S,C004,Irvine,Irvine, ,US,United States of America,R,8,24, ,33.639669,-117.839159,6368789845, , , ,92617-4043, ,1, ,"AC01,AS01,GS05",CA,California,-08:00, 
 ,92617405093,93 Schubert Ct, ,S,C003,Irvine,Irvine, ,US,United States of America,R,4,93, ,33.642025,-117.839691,6390781024, , , ,92617-4050, ,1, ,"AC01,AS01,GS05",CA,California,-08:00, 
 ,92617404722,22 McClintock Ct, ,S,C005,Irvine,Irvine, ,US,United States of America,R,6,22, ,33.634661,-117.840814,6542559019, , , ,92617-4047, ,1, ,"AC01,AS01,GS05",CA,California,-08:00, 
 ,92617405081,81 Schubert Ct, ,S,C003,Irvine,Irvine, ,US,United States of America,R,7,81, ,33.642338,-117.839439,6360328258, , , ,92617-4050, ,1, ,"AC01,AS01,GS05",CA,California,-08:00, 
 ,92617406748,48 Schubert Ct, ,S,C003,Irvine,Irvine, ,US,United States of America,R,6,48, ,33.641809,-117.838190,6460952434, , , ,92617-4067, ,1, ,"AC01,AS01,GS05",CA,California,-08:00, 
 ,92617408016,16 Eliot Ct, ,S,C005,Irvine,Irvine, ,US,United States of America,R,6,16, ,33.635575,-117.841686,6469186302, , , ,92617-4080, ,1, ,"AC01,AS01,GS05",CA,California,-08:00, 
 ,92617400024,24 Russell Ct, ,S,C003,Irvine,Irvine, ,US,United States of America,R,5,24, ,33.641112,-117.840093,4573963037, , , ,92617-4000, ,1, ,"AC01,AS01,GS05",CA,California,-08:00, 
 ,92617409412,12 Frost, ,S,C004,Irvine,Irvine, ,US,United States of America,R,5,12, ,33.639255,-117.834745,6512076016, , , ,92617-4094, ,1, ,"AC01,AS01,GS05",CA,California,-08:00, 
 ,92617404414,14 Thompson Ct, ,S,C003,Irvine,Irvine, ,US,United States of America,R,8,14, ,33.640606,-117.839867,6650454906, , , ,92617-4044, ,1, ,"AC01,AS01,GS05",CA,California,-08:00, 
 ,92617408914,14 Murasaki St, ,S,C004,Irvine,Irvine, ,US,United States of America,R,9,14, ,33.640665,-117.834723,6551521274, , , ,92617-4089, ,1, ,"AC01,AS01,GS05",CA,California,-08:00, 
 ,92617409001,1 Twain, ,S,C004,Irvine,Irvine, ,US,United States of America,R,1,01, ,33.640457,-117.835540,6727696542, , , ,92617-4090, ,1, ,"AC01,AS01,GS05",CA,California,-08:00, 
 ,92617408701,1 Murasaki St, ,S,C004,Irvine,Irvine, ,US,United States of America,R,5,01, ,33.641073,-117.836197,4254928451, , , ,92617-4087, ,1, ,"AC01,AS01,GS05",CA,California,-08:00, 
 ,92617408823,23 Murasaki St, ,S,C004,Irvine,Irvine, ,US,United States of America,R,0,23, ,33.640004,-117.834309,6755113993, , , ,92617-4088, ,1, ,"AC01,AS01,GS05",CA,California,-08:00, 
 ,92617409218,18 Fuertes, ,S,C004,Irvine,Irvine, ,US,United States of America,R,1,18, ,33.639514,-117.833806,6778246326, , , ,92617-4092, ,1, ,"AC01,AS01,GS05",CA,California,-08:00, 
 ,92617402912,12 Dickens Ct, ,S,C005,Irvine,Irvine, ,US,United States of America,R,7,12, ,33.639162,-117.842638,6658823698, , , ,92617-4029, ,1, ,"AC01,AS01,GS05",CA,California,-08:00, 
 ,92617407812,12 Joyce Ct, ,S,C005,Irvine,Irvine, ,US,United States of America,R,3,12, ,33.634774,-117.841589,4181334744, , , ,92617-4078, ,1, ,"AC01,AS01,GS05",CA,California,-08:00, 
 ,92617406824,24 Harvey Ct, ,S,C005,Irvine,Irvine, ,US,United States of America,R,1,24, ,33.636717,-117.842015,6795771779, , , ,92617-4068, ,1, ,"AC01,AS01,GS05",CA,California,-08:00, 
 ,92617404322,22 Perkins Ct, ,S,C004,Irvine,Irvine, ,US,United States of America,R,0,22, ,33.639752,-117.839396,6675809286, , , ,92617-4043, ,1, ,"AC01,AS01,GS05",CA,California,-08:00, 
 ,92617407818,18 Joyce Ct, ,S,C005,Irvine,Irvine, ,US,United States of America,R,7,18, ,33.634945,-117.841089,6725831241, , , ,92617-4078, ,1, ,"AC01,AS01,GS05",CA,California,-08:00, 
 ,92617402805,5 Dickens Ct, ,S,C005,Irvine,Irvine, ,US,United States of America,R,6,05, ,33.639133,-117.843506,8666841712, , , ,92617-4028, ,1, ,"AC01,AS01,GS05",CA,California,-08:00, 
 ,92617407634,34 Gabrielino Dr, ,S,C004,Irvine,Irvine, ,US,United States of America,R,1,34, ,33.640520,-117.836050,8662773688, , , ,92617-4076, ,1, ,"AC01,AS01,GS05",CA,California,-08:00, 
 ,92617404108,8 Owen Ct, ,S,C004,Irvine,Irvine, ,US,United States of America,R,8,08, ,33.639404,-117.838633,2775426787, , , ,92617-4041, ,1, ,"AC01,AS01,GS05",CA,California,-08:00, 
 ,92617404961,61 Schubert Ct, ,S,C003,Irvine,Irvine, ,US,United States of America,R,1,61, ,33.641842,-117.839470,8741129320, , , ,92617-4049, ,1, ,"AC01,AS01,GS05",CA,California,-08:00, 
 ,92617403924,24 Mendel Ct, ,S,C005,Irvine,Irvine, ,US,United States of America,R,3,24, ,33.639649,-117.839873,8878823503, , , ,92617-4039, ,1, ,"AC01,AS01,GS05",CA,California,-08:00, 
 ,92617408014,14 Eliot Ct, ,S,C005,Irvine,Irvine, ,US,United States of America,R,8,14, ,33.635515,-117.841862,8950688089, , , ,92617-4080, ,1, ,"AC01,AS01,GS05",CA,California,-08:00, 
 ,92617404112,12 Owen Ct, ,S,C004,Irvine,Irvine, ,US,United States of America,R,3,12, ,33.639500,-117.838304,3424905756, , , ,92617-4041, ,1, ,"AC01,AS01,GS05",CA,California,-08:00, 
 ,92617404320,20 Perkins Ct, ,S,C004,Irvine,Irvine, ,US,United States of America,R,2,20, ,33.639924,-117.839459,8816542833, , , ,92617-4043, ,1, ,"AC01,AS01,GS05",CA,California,-08:00, 
 ,92617406922,22 Whistler Ct, ,S,C005,Irvine,Irvine, ,US,United States of America,R,2,22, ,33.635683,-117.840663,8891515431, , , ,92617-4069, ,1, ,"AC01,AS01,GS05",CA,California,-08:00, 
 ,92617406577,77 Whitman Ct, ,S,C005,Irvine,Irvine, ,US,United States of America,R,6,77, ,33.636414,-117.838081,8784486847, , , ,92617-4065, ,1, ,"AC01,AS01,GS05",CA,California,-08:00, 
 ,92617403814,14 Newton Ct, ,S,C005,Irvine,Irvine, ,US,United States of America,R,5,14, ,33.639050,-117.839806,8755966206, , , ,92617-4038, ,1, ,"AC01,AS01,GS05",CA,California,-08:00, 
 ,92617403526,26 Los Trancos Dr, ,S,C005,Irvine,Irvine, ,US,United States of America,R,5,26, ,33.637546,-117.842970,3919107017, , , ,92617-4035, ,1, ,"AC01,AS01,GS05",CA,California,-08:00, 
 ,92617407702,2 Urey Ct, ,S,C005,Irvine,Irvine, ,US,United States of America,R,5,02, ,33.638286,-117.839040,3829923650, , , ,92617-4077, ,1, ,"AC01,AS01,GS05",CA,California,-08:00, 
 ,92617404306,6 Perkins Ct, ,S,C004,Irvine,Irvine, ,US,United States of America,R,8,06, ,33.640108,-117.838364,4369266949, , , ,92617-4043, ,1, ,"AC01,AS01,GS05",CA,California,-08:00, 
 ,92617406905,5 Whistler Ct, ,S,C005,Irvine,Irvine, ,US,United States of America,R,1,05, ,33.635420,-117.839973,6586245131, , , ,92617-4069, ,1, ,"AC01,AS01,GS05",CA,California,-08:00, 
 ,92617402305,5 Alcott Ct, ,S,C005,Irvine,Irvine, ,US,United States of America,R,1,05, ,33.639842,-117.841746,6660553128, , , ,92617-4023, ,1, ,"AC01,AS01,GS05",CA,California,-08:00, 
 ,92617406816,16 Harvey Ct, ,S,C005,Irvine,Irvine, ,US,United States of America,R,0,16, ,33.636937,-117.842641,3732693546, , , ,92617-4068, ,1, ,"AC01,AS01,GS05",CA,California,-08:00, 
 ,92617404408,8 Thompson Ct, ,S,C003,Irvine,Irvine, ,US,United States of America,R,5,08, ,33.640754,-117.839373,3822705500, , , ,92617-4044, ,1, ,"AC01,AS01,GS05",CA,California,-08:00, 
 ,92617402306,6 Alcott Ct, ,S,C005,Irvine,Irvine, ,US,United States of America,R,0,06, ,33.640209,-117.841156,3776518002, , , ,92617-4023, ,1, ,"AC01,AS01,GS05",CA,California,-08:00, 
 ,92617405415,15 Virgil Ct, ,S,C005,Irvine,Irvine, ,US,United States of America,R,6,15, ,33.638444,-117.837326,3820027219, , , ,92617-4054, ,1, ,"AC01,AS01,GS05",CA,California,-08:00, 
 ,92617409102,2 Twain, ,S,C004,Irvine,Irvine, ,US,United States of America,R,9,02, ,33.640403,-117.835019,8986112416, , , ,92617-4091, ,1, ,"AC01,AS01,GS05",CA,California,-08:00, 
 ,92617405528,28 Young, ,S,C005,Irvine,Irvine, ,US,United States of America,R,1,28, ,33.636840,-117.841368,4020866699, , , ,92617-4055, ,1, ,"AC01,AS01,GS05",CA,California,-08:00, 
 ,92617402806,6 Dickens Ct, ,S,C005,Irvine,Irvine, ,US,United States of America,R,5,06, ,33.639555,-117.843286,3862363435, , , ,92617-4028, ,1, ,"AC01,AS01,AS16,GS05",CA,California,-08:00, 
 ,92617406115,15 Zola Ct, ,S,C005,Irvine,Irvine, ,US,United States of America,R,8,15, ,33.637797,-117.836892,4110202523, , , ,92617-4061, ,1, ,"AC01,AS01,GS05",CA,California,-08:00, 
 ,92617407127,27 Harvey Ct, ,S,C005,Irvine,Irvine, ,US,United States of America,R,4,27, ,33.636196,-117.842554,3941902610, , , ,92617-4071, ,1, ,"AC01,AS01,GS05",CA,California,-08:00, 
 ,92617404007,7 Owen Ct, ,S,C004,Irvine,Irvine, ,US,United States of America,R,0,07, ,33.639063,-117.838251,8580954990, , , ,92617-4040, ,1, ,"AC01,AS01,GS05",CA,California,-08:00, 
 ,92617400010,10 Russell Ct, ,S,C003,Irvine,Irvine, ,US,United States of America,R,0,10, ,33.641556,-117.839264,4059708145, , , ,92617-4000, ,1, ,"AC01,AS01,GS05",CA,California,-08:00, 
 ,92617404710,10 McClintock Ct, ,S,C005,Irvine,Irvine, ,US,United States of America,R,9,10, ,33.634468,-117.841268,6509087131, , , ,92617-4047, ,1, ,"AC01,AS01,GS05",CA,California,-08:00, 
 ,92617409517,17 Fuertes, ,S,C004,Irvine,Irvine, ,US,United States of America,R,9,17, ,33.639248,-117.834097,3990865720, , , ,92617-4095, ,1, ,"AC01,AS01,GS05",CA,California,-08:00, 
 ,92617405139,139 Schubert Ct, ,S,C003,Irvine,Irvine, ,US,United States of America,R,3,39, ,33.642262,-117.838959,3990609897, , , ,92617-4051, ,1, ,"AC01,AS01,GS05",CA,California,-08:00, 
 ,92617405109,109 Schubert Ct, ,S,C003,Irvine,Irvine, ,US,United States of America,R,6,09, ,33.641968,-117.839706,5591549669, , , ,92617-4051, ,1, ,"AC01,AS01,GS05",CA,California,-08:00, 
 ,92617406109,9 Zola Ct, ,S,C005,Irvine,Irvine, ,US,United States of America,R,5,09, ,33.637596,-117.837129,4064033042, , , ,92617-4061, ,1, ,"AC01,AS01,GS05",CA,California,-08:00, 
 ,92617407115,15 Harvey Ct, ,S,C005,Irvine,Irvine, ,US,United States of America,R,7,15, ,33.636563,-117.842683,5702078032, , , ,92617-4071, ,1, ,"AC01,AS01,GS05",CA,California,-08:00, 
 ,92617409507,7 Fuertes, ,S,C004,Irvine,Irvine, ,US,United States of America,R,0,07, ,33.639569,-117.834939,5589087123, , , ,92617-4095, ,1, ,"AC01,AS01,GS05",CA,California,-08:00, 
 ,92617406914,14 Whistler Ct, ,S,C005,Irvine,Irvine, ,US,United States of America,R,1,14, ,33.635174,-117.840659,5855373224, , , ,92617-4069, ,1, ,"AC01,AS01,GS05",CA,California,-08:00, 
 ,92617406576,76 Whitman Ct, ,S,C005,Irvine,Irvine, ,US,United States of America,R,7,76, ,33.636475,-117.838058,5650331339, , , ,92617-4065, ,1, ,"AC01,AS01,GS05",CA,California,-08:00, 
 ,92617405318,18 Virgil Ct, ,S,C005,Irvine,Irvine, ,US,United States of America,R,4,18, ,33.638766,-117.837570,5762785700, , , ,92617-4053, ,1, ,"AC01,AS01,GS05",CA,California,-08:00, 
 ,92617402924,24 Dickens Ct, ,S,C005,Irvine,Irvine, ,US,United States of America,R,4,24, ,33.638505,-117.841896,6042452935, , , ,92617-4029, ,1, ,"AC01,AS01,GS05",CA,California,-08:00, 
 ,92617405306,6 Virgil Ct, ,S,C005,Irvine,Irvine, ,US,United States of America,R,7,06, ,33.638433,-117.838356,6053542140, , , ,92617-4053, ,1, ,"AC01,AS01,GS05",CA,California,-08:00, 
 ,92617402918,18 Dickens Ct, ,S,C005,Irvine,Irvine, ,US,United States of America,R,1,18, ,33.638938,-117.842185,6059076944, , , ,92617-4029, ,1, ,"AC01,AS01,GS05",CA,California,-08:00, 
 ,92617405718,18 Whitman Ct, ,S,C005,Irvine,Irvine, ,US,United States of America,R,0,18, ,33.636405,-117.841226,5779693733, , , ,92617-4057, ,1, ,"AC01,AS01,GS05",CA,California,-08:00, 
 ,92617402811,11 Dickens Ct, ,S,C005,Irvine,Irvine, ,US,United States of America,R,9,11, ,33.638775,-117.842898,5806132875, , , ,92617-4028, ,1, ,"AC01,AS01,GS05",CA,California,-08:00, 
 ,92617404318,18 Perkins Ct, ,S,C004,Irvine,Irvine, ,US,United States of America,R,5,18, ,33.640109,-117.839418,4057513340, , , ,92617-4043, ,1, ,"AC01,AS01,GS05",CA,California,-08:00, 
 ,92617403002,2 Gibbs Ct, ,S,C005,Irvine,Irvine, ,US,United States of America,R,6,02, ,33.638157,-117.843701,6432716271, , , ,92617-4030, ,1, ,"AC01,AS01,GS05",CA,California,-08:00, 
 ,92617406744,44 Schubert Ct, ,S,C003,Irvine,Irvine, ,US,United States of America,R,0,44, ,33.641667,-117.838216,6597736914, , , ,92617-4067, ,1, ,"AC01,AS01,GS05",CA,California,-08:00, 
 ,92617407916,16 Handel Ct, ,S,C005,Irvine,Irvine, ,US,United States of America,R,8,16, ,33.635200,-117.841500,6273475556, , , ,92617-4079, ,1, ,"AC01,AS01,GS05",CA,California,-08:00, 
 ,92617408703,3 Murasaki St, ,S,C004,Irvine,Irvine, ,US,United States of America,R,3,03, ,33.640947,-117.836080,6018183155, , , ,92617-4087, ,1, ,"AC01,AS01,GS05",CA,California,-08:00, 
 ,92617405131,131 Schubert Ct, ,S,C003,Irvine,Irvine, ,US,United States of America,R,1,31, ,33.642178,-117.838646,6207017444, , , ,92617-4051, ,1, ,"AC01,AS01,GS05",CA,California,-08:00, 
 ,92617409220,20 Fuertes, ,S,C004,Irvine,Irvine, ,US,United States of America,R,8,20, ,33.639432,-117.833664,6069599943, , , ,92617-4092, ,1, ,"AC01,AS01,GS05",CA,California,-08:00, 
 ,92617406105,5 Zola Ct, ,S,C005,Irvine,Irvine, ,US,United States of America,R,9,05, ,33.637389,-117.837321,6178748901, , , ,92617-4061, ,1, ,"AC01,AS01,GS05",CA,California,-08:00, 
 ,92617409416,16 Frost, ,S,C004,Irvine,Irvine, ,US,United States of America,R,1,16, ,33.639133,-117.834423,5933992370, , , ,92617-4094, ,1, ,"AC01,AS01,GS05",CA,California,-08:00, 
 ,92617408709,9 Murasaki St, ,S,C004,Irvine,Irvine, ,US,United States of America,R,7,09, ,33.640745,-117.835532,5901747324, , , ,92617-4087, ,1, ,"AC01,AS01,GS05",CA,California,-08:00, 
 ,92617408817,17 Murasaki St, ,S,C004,Irvine,Irvine, ,US,United States of America,R,7,17, ,33.640278,-117.834854,5971352183, , , ,92617-4088, ,1, ,"AC01,AS01,GS05",CA,California,-08:00, 
 ,92617406925,25 Whistler Ct, ,S,C005,Irvine,Irvine, ,US,United States of America,R,9,25, ,33.635779,-117.840210,6229935740, , , ,92617-4069, ,1, ,"AC01,AS01,GS05",CA,California,-08:00, 
 ,92617400001,1 Russell Ct, ,S,C003,Irvine,Irvine, ,US,United States of America,R,0,01, ,33.641095,-117.838799,6341653927, , , ,92617-4000, ,1, ,"AC01,AS01,GS05",CA,California,-08:00, 
 ,92617407728,28 Urey Ct, ,S,C005,Irvine,Irvine, ,US,United States of America,R,7,28, ,33.637562,-117.841339,5945097637, , , ,92617-4077, ,1, ,"AC01,AS01,GS05",CA,California,-08:00, 
 ,92617407914,14 Handel Ct, ,S,C005,Irvine,Irvine, ,US,United States of America,R,0,14, ,33.635134,-117.841668,7312991211, , , ,92617-4079, ,1, ,"AC01,AS01,GS05",CA,California,-08:00, 
 ,92617409406,6 Frost, ,S,C004,Irvine,Irvine, ,US,United States of America,R,2,06, ,33.639369,-117.835266,8753731676, , , ,92617-4094, ,1, ,"AC01,AS01,GS05",CA,California,-08:00, 
 ,92617409110,10 Twain, ,S,C004,Irvine,Irvine, ,US,United States of America,R,0,10, ,33.639561,-117.835423,3688535963, , , ,92617-4091, ,1, ,"AC01,AS01,GS05",CA,California,-08:00, 
 ,92617404003,3 Owen Ct, ,S,C004,Irvine,Irvine, ,US,United States of America,R,4,03, ,33.638963,-117.838570,7885059978, , , ,92617-4040, ,1, ,"AC01,AS01,GS05",CA,California,-08:00, 
 ,92617404404,4 Thompson Ct, ,S,C003,Irvine,Irvine, ,US,United States of America,R,9,04, ,33.640750,-117.839017,7756760981, , , ,92617-4044, ,1, ,"AC01,AS01,GS05",CA,California,-08:00, 
 ,92617402406,6 Blake Ct, ,S,C005,Irvine,Irvine, ,US,United States of America,R,9,06, ,33.640451,-117.842004,7848958183, , , ,92617-4024, ,1, ,"AC01,AS01,GS05",CA,California,-08:00, 
 ,92617409204,4 Fuertes, ,S,C004,Irvine,Irvine, ,US,United States of America,R,6,04, ,33.639994,-117.834970,4012123298, , , ,92617-4092, ,1, ,"AC01,AS01,GS05",CA,California,-08:00, 
 ,92617406671,71 Whitman Ct, ,S,C005,Irvine,Irvine, ,US,United States of America,R,1,71, ,33.636890,-117.838097,4109211132, , , ,92617-4066, ,1, ,"AC01,AS01,GS05",CA,California,-08:00, 
 ,92617400007,7 Russell Ct, ,S,C003,Irvine,Irvine, ,US,United States of America,R,4,07, ,33.641135,-117.839338,3801124491, , , ,92617-4000, ,1, ,"AC01,AS01,GS05",CA,California,-08:00, 
 ,92617404001,1 Owen Ct, ,S,C004,Irvine,Irvine, ,US,United States of America,R,6,01, ,33.638888,-117.838751,8286236088, , , ,92617-4040, ,1, ,"AC01,AS01,GS05",CA,California,-08:00, 
 ,92617405524,24 Young, ,S,C005,Irvine,Irvine, ,US,United States of America,R,5,24, ,33.637199,-117.841335,5706117423, , , ,92617-4055, ,1, ,"AC01,AS01,GS05",CA,California,-08:00, 
 ,92617409005,5 Twain, ,S,C004,Irvine,Irvine, ,US,United States of America,R,7,05, ,33.640108,-117.835558,7992959033, , , ,92617-4090, ,1, ,"AC01,AS01,GS05",CA,California,-08:00, 
 ,92617408910,10 Murasaki St, ,S,C004,Irvine,Irvine, ,US,United States of America,R,3,10, ,33.640867,-117.835023,8047752227, , , ,92617-4089, ,1, ,"AC01,AS01,GS05",CA,California,-08:00, 
 ,92617406826,26 Harvey Ct, ,S,C005,Irvine,Irvine, ,US,United States of America,R,9,26, ,33.636560,-117.841926,8022672903, , , ,92617-4068, ,1, ,"AC01,AS01,GS05",CA,California,-08:00, 
 ,92617402404,4 Blake Ct, ,S,C005,Irvine,Irvine, ,US,United States of America,R,1,04, ,33.640420,-117.841909,8059656825, , , ,92617-4024, ,1, ,"AC01,AS01,GS05",CA,California,-08:00, 
 ,92617403110,10 Gibbs Ct, ,S,C005,Irvine,Irvine, ,US,United States of America,R,6,10, ,33.638202,-117.842969,7965196868, , , ,92617-4031, ,1, ,"AC01,AS01,GS05",CA,California,-08:00, 
 ,92617404412,12 Thompson Ct, ,S,C003,Irvine,Irvine, ,US,United States of America,R,0,12, ,33.640741,-117.839753,7968021049, , , ,92617-4044, ,1, ,"AC01,AS01,GS05",CA,California,-08:00, 
 ,92617403528,28 Los Trancos Dr, ,S,C005,Irvine,Irvine, ,US,United States of America,R,3,28, ,33.637343,-117.842985,8181189909, , , ,92617-4035, ,1, ,"AC01,AS01,GS05",CA,California,-08:00, 
 ,92617406668,68 Whitman Ct, ,S,C005,Irvine,Irvine, ,US,United States of America,R,5,68, ,33.637047,-117.838387,8416632366, , , ,92617-4066, ,1, ,"AC01,AS01,GS05",CA,California,-08:00, 
 ,92617409108,8 Twain, ,S,C004,Irvine,Irvine, ,US,United States of America,R,3,08, ,33.639737,-117.835276,6040579997, , , ,92617-4091, ,1, ,"AC01,AS01,GS05",CA,California,-08:00, 
 ,92617409701,101 Gabrielino Dr, ,S,C004,Irvine,Irvine, ,US,United States of America,R,4,01, ,33.642090,-117.837135,6078908216, , , ,92617-4097, ,1, ,"AC01,AS01,GS05",CA,California,-08:00, 
 ,92617403108,8 Gibbs Ct, ,S,C005,Irvine,Irvine, ,US,United States of America,R,9,08, ,33.638205,-117.843139,8074811882, , , ,92617-4031, ,1, ,"AC01,AS01,GS05",CA,California,-08:00, 
 ,92617405135,135 Schubert Ct, ,S,C003,Irvine,Irvine, ,US,United States of America,R,7,35, ,33.642208,-117.838478,8423112168, , , ,92617-4051, ,1, ,"AC01,AS01,GS05",CA,California,-08:00, 
 ,92617404402,2 Thompson Ct, ,S,C003,Irvine,Irvine, ,US,United States of America,R,1,02, ,33.640793,-117.838864,8193790173, , , ,92617-4044, ,1, ,"AC01,AS01,GS05",CA,California,-08:00, 
 ,92617403118,18 Gibbs Ct, ,S,C005,Irvine,Irvine, ,US,United States of America,R,8,18, ,33.637872,-117.842354,8333130725, , , ,92617-4031, ,1, ,"AC01,AS01,GS05",CA,California,-08:00, 
 ,92617409315,15 Frost, ,S,C004,Irvine,Irvine, ,US,United States of America,R,3,15, ,33.638855,-117.834723,6337485424, , , ,92617-4093, ,1, ,"AC01,AS01,GS05",CA,California,-08:00, 
 ,92617406916,16 Whistler Ct, ,S,C005,Irvine,Irvine, ,US,United States of America,R,9,16, ,33.635204,-117.840837,8177717839, , , ,92617-4069, ,1, ,"AC01,AS01,GS05",CA,California,-08:00, 
 ,92617405717,17 Whitman Ct, ,S,C005,Irvine,Irvine, ,US,United States of America,R,1,17, ,33.636465,-117.841226,8306462584, , , ,92617-4057, ,1, ,"AC01,AS01,GS05",CA,California,-08:00, 
 ,92617550519,519 E Peltason Dr, ,S,C003,Irvine,Irvine, ,US,United States of America,R,0,19, ,33.643673,-117.837212,8196983063, , , ,92617-5505, ,1, ,"AC01,AS01,GS05",CA,California,-08:00, 
 ,92617406675,75 Whitman Ct, ,S,C005,Irvine,Irvine, ,US,United States of America,R,7,75, ,33.636604,-117.837868,8283636100, , , ,92617-4066, ,1, ,"AC01,AS01,GS05",CA,California,-08:00, 
 ,92617400008,8 Russell Ct, ,S,C003,Irvine,Irvine, ,US,United States of America,R,3,08, ,33.641534,-117.839069,8986329667, , , ,92617-4000, ,1, ,"AC01,AS01,GS05",CA,California,-08:00, 
 ,92617402804,4 Dickens Ct, ,S,C005,Irvine,Irvine, ,US,United States of America,R,7,04, ,33.639441,-117.843168,8999042547, , , ,92617-4028, ,1, ,"AC01,AS01,GS05",CA,California,-08:00, 
 ,92617406010,10 Zola Ct, ,S,C005,Irvine,Irvine, ,US,United States of America,R,4,10, ,33.638049,-117.837329,6302846787, , , ,92617-4060, ,1, ,"AC01,AS01,GS05",CA,California,-08:00, 
 ,92617406669,69 Whitman Ct, ,S,C005,Irvine,Irvine, ,US,United States of America,R,4,69, ,33.636993,-117.838318,8226100292, , , ,92617-4066, ,1, ,"AC01,AS01,GS05",CA,California,-08:00, 
 ,92617409410,10 Frost, ,S,C004,Irvine,Irvine, ,US,United States of America,R,7,10, ,33.639282,-117.834903,8528424927, , , ,92617-4094, ,1, ,"AC01,AS01,GS05",CA,California,-08:00, 
 ,92617403922,22 Mendel Ct, ,S,C005,Irvine,Irvine, ,US,United States of America,R,5,22, ,33.639800,-117.840023,9337134681, , , ,92617-4039, ,1, ,"AC01,AS01,GS05",CA,California,-08:00, 
 ,92617405409,9 Virgil Ct, ,S,C005,Irvine,Irvine, ,US,United States of America,R,3,09, ,33.638332,-117.837612,8491355948, , , ,92617-4054, ,1, ,"AC01,AS01,GS05",CA,California,-08:00, 
 ,92617400003,3 Russell Ct, ,S,C003,Irvine,Irvine, ,US,United States of America,R,8,03, ,33.641105,-117.838961,8989308149, , , ,92617-4000, ,1, ,"AC01,AS01,GS05",CA,California,-08:00, 
 ,92617406814,14 Harvey Ct, ,S,C005,Irvine,Irvine, ,US,United States of America,R,2,14, ,33.636942,-117.842824,8440321168, , , ,92617-4068, ,1, ,"AC01,AS01,GS05",CA,California,-08:00, 
 ,92617408912,12 Murasaki St, ,S,C004,Irvine,Irvine, ,US,United States of America,R,1,12, ,33.640770,-117.834864,8474883108, , , ,92617-4089, ,1, ,"AC01,AS01,GS05",CA,California,-08:00, 
 ,92617408902,2 Murasaki St, ,S,C004,Irvine,Irvine, ,US,United States of America,R,2,02, ,33.641204,-117.835721,8492958122, , , ,92617-4089, ,1, ,"AC01,AS01,GS05",CA,California,-08:00, 
 ,92617402802,2 Dickens Ct, ,S,C005,Irvine,Irvine, ,US,United States of America,R,9,02, ,33.639379,-117.843032,7819174027, , , ,92617-4028, ,1, ,"AC01,AS01,GS05",CA,California,-08:00, 
 ,92617406014,14 Zola Ct, ,S,C005,Irvine,Irvine, ,US,United States of America,R,0,14, ,33.638157,-117.837059,9220886163, , , ,92617-4060, ,1, ,"AC01,AS01,GS05",CA,California,-08:00, 
 ,92617403822,22 Newton Ct, ,S,C005,Irvine,Irvine, ,US,United States of America,R,6,22, ,33.638909,-117.839406,8487085885, , , ,92617-4038, ,1, ,"AC01,AS01,GS05",CA,California,-08:00, 
 ,92617408904,4 Murasaki St, ,S,C004,Irvine,Irvine, ,US,United States of America,R,0,04, ,33.641156,-117.835499,8216341108, , , ,92617-4089, ,1, ,"AC01,AS01,GS05",CA,California,-08:00, 
 ,92617406822,22 Harvey Ct, ,S,C005,Irvine,Irvine, ,US,United States of America,R,3,22, ,33.636773,-117.842153,8995025267, , , ,92617-4068, ,1, ,"AC01,AS01,GS05",CA,California,-08:00, 
 ,92617405302,2 Virgil Ct, ,S,C005,Irvine,Irvine, ,US,United States of America,R,1,02, ,33.638203,-117.838512,9056456436, , , ,92617-4053, ,1, ,"AC01,AS01,GS05",CA,California,-08:00, 
 ,92617407639,39 Gabrielino Dr, ,S,C004,Irvine,Irvine, ,US,United States of America,R,6,39, ,33.640080,-117.835830,8251691757, , , ,92617-4076, ,1, ,"AC01,AS01,GS05",CA,California,-08:00, 
 ,92617402808,8 Dickens Ct, ,S,C005,Irvine,Irvine, ,US,United States of America,R,3,08, ,33.639666,-117.843406,9110263482, , , ,92617-4028, ,1, ,"AC01,AS01,GS05",CA,California,-08:00, 
 ,92617406818,18 Harvey Ct, ,S,C005,Irvine,Irvine, ,US,United States of America,R,8,18, ,33.636909,-117.842437,9126870751, , , ,92617-4068, ,1, ,"AC01,AS01,GS05",CA,California,-08:00, 
 ,92617400022,22 Russell Ct, ,S,C003,Irvine,Irvine, ,US,United States of America,R,7,22, ,33.641245,-117.840099,1037652248, , , ,92617-4000, ,1, ,"AC01,AS01,GS05",CA,California,-08:00, 
 ,92617406920,20 Whistler Ct, ,S,C005,Irvine,Irvine, ,US,United States of America,R,4,20, ,33.635638,-117.840823,1042637805, , , ,92617-4069, ,1, ,"AC01,AS01,GS05",CA,California,-08:00, 
 ,92617405001,101 Schubert Ct, ,S,C003,Irvine,Irvine, ,US,United States of America,R,5,01, ,33.641907,-117.839508,9291072409, , , ,92617-4050, ,1, ,"AC01,AS01,GS05",CA,California,-08:00, 
 ,92617409801,201 Gabrielino Dr, ,S,C004,Irvine,Irvine, ,US,United States of America,R,3,01, ,33.642021,-117.836777,9251989830, , , ,92617-4098, ,1, ,"AC01,AS01,GS05",CA,California,-08:00, 
 ,92617405075,75 Schubert Ct, ,S,C003,Irvine,Irvine, ,US,United States of America,R,4,75, ,33.642380,-117.839439,8992589773, , , ,92617-4050, ,1, ,"AC01,AS01,GS05",CA,California,-08:00, 
 ,92617403116,16 Gibbs Ct, ,S,C005,Irvine,Irvine, ,US,United States of America,R,0,16, ,33.638010,-117.842423,9263231766, , , ,92617-4031, ,1, ,"AC01,AS01,GS05",CA,California,-08:00, 
 ,92617408827,27 Murasaki St, ,S,C004,Irvine,Irvine, ,US,United States of America,R,6,27, ,33.639814,-117.833805,9300504492, , , ,92617-4088, ,1, ,"AC01,AS01,GS05",CA,California,-08:00, 
 ,92617403602,2 Schubert Ct, ,S,C003,Irvine,Irvine, ,US,United States of America,R,0,02, ,33.641259,-117.838827,1109983418, , , ,92617-4036, ,1, ,"AC01,AS01,GS05",CA,California,-08:00, 
 ,92617407032,32 Harvey Ct, ,S,C005,Irvine,Irvine, ,US,United States of America,R,9,32, ,33.635773,-117.842220,1145402819, , , ,92617-4070, ,1, ,"AC01,AS01,GS05",CA,California,-08:00, 
 ,92617405117,117 Schubert Ct, ,S,C003,Irvine,Irvine, ,US,United States of America,R,7,17, ,33.642292,-117.839020,1242524427, , , ,92617-4051, ,1, ,"AC01,AS01,GS05",CA,California,-08:00, 
 ,92617404106,6 Owen Ct, ,S,C004,Irvine,Irvine, ,US,United States of America,R,0,06, ,33.639357,-117.838788,1011673991, , , ,92617-4041, ,1, ,"AC01,AS01,GS05",CA,California,-08:00, 
 ,92617402720,20 Curie Ct, ,S,C005,Irvine,Irvine, ,US,United States of America,R,0,20, ,33.639325,-117.841654,1043555543, , , ,92617-4027, ,1, ,"AC01,AS01,GS05",CA,California,-08:00, 
 ,92617409104,4 Twain, ,S,C004,Irvine,Irvine, ,US,United States of America,R,7,04, ,33.640261,-117.835098,1058777166, , , ,92617-4091, ,1, ,"AC01,AS01,GS05",CA,California,-08:00, 
 ,92617402309,9 Alcott Ct, ,S,C005,Irvine,Irvine, ,US,United States of America,R,7,09, ,33.639677,-117.842375,1341990819, , , ,92617-4023, ,1, ,"AC01,AS01,GS05",CA,California,-08:00, 
 ,92617402322,22 Alcott Ct, ,S,C005,Irvine,Irvine, ,US,United States of America,R,2,22, ,33.639534,-117.841356,1150335286, , , ,92617-4023, ,1, ,"AC01,AS01,GS05",CA,California,-08:00, 
 ,92617402716,16 Curie Ct, ,S,C005,Irvine,Irvine, ,US,United States of America,R,5,16, ,33.639451,-117.842043,9273915855, , , ,92617-4027, ,1, ,"AC01,AS01,GS05",CA,California,-08:00, 
 ,92617409309,9 Frost, ,S,C004,Irvine,Irvine, ,US,United States of America,R,0,09, ,33.638929,-117.835106,1561015700, , , ,92617-4093, ,1, ,"AC01,AS01,GS05",CA,California,-08:00, 
 ,92617405133,133 Schubert Ct, ,S,C003,Irvine,Irvine, ,US,United States of America,R,9,33, ,33.642151,-117.838593,1274484904, , , ,92617-4051, ,1, ,"AC01,AS01,GS05",CA,California,-08:00, 
 ,92617405119,119 Schubert Ct, ,S,C003,Irvine,Irvine, ,US,United States of America,R,5,19, ,33.642113,-117.839299,9290578445, , , ,92617-4051, ,1, ,"AC01,AS01,GS05",CA,California,-08:00, 
 ,92617405097,97 Schubert Ct, ,S,C003,Irvine,Irvine, ,US,United States of America,R,0,97, ,33.642269,-117.839447,8424557060, , , ,92617-4050, ,1, ,"AC01,AS01,GS05",CA,California,-08:00, 
 ,92617406674,74 Whitman Ct, ,S,C005,Irvine,Irvine, ,US,United States of America,R,8,74, ,33.636654,-117.837875,8403517247, , , ,92617-4066, ,1, ,"AC01,AS01,GS05",CA,California,-08:00, 
 ,92617405314,14 Virgil Ct, ,S,C005,Irvine,Irvine, ,US,United States of America,R,8,14, ,33.638661,-117.837833,1243393076, , , ,92617-4053, ,1, ,"AC01,AS01,GS05",CA,California,-08:00, 
 ,92617405115,115 Schubert Ct, ,S,C003,Irvine,Irvine, ,US,United States of America,R,9,15, ,33.642323,-117.839066,1464254943, , , ,92617-4051, ,1, ,"AC01,AS01,GS05",CA,California,-08:00, 
 ,92617406111,11 Zola Ct, ,S,C005,Irvine,Irvine, ,US,United States of America,R,2,11, ,33.637719,-117.837027,1411143477, , , ,92617-4061, ,1, ,"AC01,AS01,GS05",CA,California,-08:00, 
 ,92617405087,87 Schubert Ct, ,S,C003,Irvine,Irvine, ,US,United States of America,R,1,87, ,33.642410,-117.839447,1436726122, , , ,92617-4050, ,1, ,"AC01,AS01,GS05",CA,California,-08:00, 
 ,92617405137,137 Schubert Ct, ,S,C003,Irvine,Irvine, ,US,United States of America,R,5,37, ,33.642113,-117.839299,1066279425, , , ,92617-4051, ,1, ,"AC01,AS01,GS05",CA,California,-08:00, 
 ,92617402922,22 Dickens Ct, ,S,C005,Irvine,Irvine, ,US,United States of America,R,6,22, ,33.638693,-117.841907,1122484648, , , ,92617-4029, ,1, ,"AC01,AS01,GS05",CA,California,-08:00, 
 ,92617407641,41 Gabrielino Dr, ,S,C004,Irvine,Irvine, ,US,United States of America,R,3,41, ,33.640080,-117.835830,1455473794, , , ,92617-4076, ,1, ,"AC01,AS01,GS05",CA,California,-08:00, 
 ,92617405095,95 Schubert Ct, ,S,C003,Irvine,Irvine, ,US,United States of America,R,2,95, ,33.642150,-117.839284,1667002127, , , ,92617-4050, ,1, ,"AC01,AS01,GS05",CA,California,-08:00, 
 ,92617407123,23 Harvey Ct, ,S,C005,Irvine,Irvine, ,US,United States of America,R,8,23, ,33.636458,-117.842420,9942070503, , , ,92617-4071, ,1, ,"AC01,AS01,GS05",CA,California,-08:00, 
 ,92617404308,8 Perkins Ct, ,S,C004,Irvine,Irvine, ,US,United States of America,R,6,08, ,33.640186,-117.838554,1702591507, , , ,92617-4043, ,1, ,"AC01,AS01,GS05",CA,California,-08:00, 
 ,92617409216,16 Fuertes, ,S,C004,Irvine,Irvine, ,US,United States of America,R,3,16, ,33.639612,-117.833967,1715846033, , , ,92617-4092, ,1, ,"AC01,AS01,GS05",CA,California,-08:00, 
 ,92617405083,83 Schubert Ct, ,S,C003,Irvine,Irvine, ,US,United States of America,R,5,83, ,33.642307,-117.839455,1764149683, , , ,92617-4050, ,1, ,"AC01,AS01,GS05",CA,California,-08:00, 
 ,92617406820,20 Harvey Ct, ,S,C005,Irvine,Irvine, ,US,United States of America,R,5,20, ,33.636862,-117.842304,1892040568, , , ,92617-4068, ,1, ,"AC01,AS01,GS05",CA,California,-08:00, 
 ,92617404314,14 Perkins Ct, ,S,C004,Irvine,Irvine, ,US,United States of America,R,9,14, ,33.640245,-117.839083,1924797951, , , ,92617-4043, ,1, ,"AC01,AS01,GS05",CA,California,-08:00, 
 ,92617405405,5 Virgil Ct, ,S,C005,Irvine,Irvine, ,US,United States of America,R,7,05, ,33.638219,-117.837875,9459962315, , , ,92617-4054, ,1, ,"AC01,AS01,GS05",CA,California,-08:00, 
 ,92617406908,8 Whistler Ct, ,S,C005,Irvine,Irvine, ,US,United States of America,R,8,08, ,33.635048,-117.840253,2014548626, , , ,92617-4069, ,1, ,"AC01,AS01,GS05",CA,California,-08:00, 
 ,92617403918,18 Mendel Ct, ,S,C005,Irvine,Irvine, ,US,United States of America,R,0,18, ,33.639777,-117.840435,1864192498, , , ,92617-4039, ,1, ,"AC01,AS01,GS05",CA,California,-08:00, 
 ,92617407635,35 Gabrielino Dr, ,S,C004,Irvine,Irvine, ,US,United States of America,R,0,35, ,33.640080,-117.835830,1922851868, , , ,92617-4076, ,1, ,"AC01,AS01,GS05",CA,California,-08:00, 
 ,92617405089,89 Schubert Ct, ,S,C003,Irvine,Irvine, ,US,United States of America,R,9,89, ,33.642162,-117.839531,2057186987, , , ,92617-4050, ,1, ,"AC01,AS01,GS05",CA,California,-08:00, 
 ,92617409214,14 Fuertes, ,S,C004,Irvine,Irvine, ,US,United States of America,R,5,14, ,33.639685,-117.834138,1287587342, , , ,92617-4092, ,1, ,"AC01,AS01,GS05",CA,California,-08:00, 
 ,92617406672,72 Whitman Ct, ,S,C005,Irvine,Irvine, ,US,United States of America,R,0,72, ,33.636852,-117.838066,1851114017, , , ,92617-4066, ,1, ,"AC01,AS01,GS05",CA,California,-08:00, 
 ,92617400002,2 Russell Ct, ,S,C003,Irvine,Irvine, ,US,United States of America,R,9,02, ,33.641443,-117.838528,2088888172, , , ,92617-4000, ,1, ,"AC01,AS01,GS05",CA,California,-08:00, 
 ,92617404851,51 Schubert Ct, ,S,C003,Irvine,Irvine, ,US,United States of America,R,3,51, ,33.642051,-117.837776,1648096501, , , ,92617-4048, ,1, ,"AC01,AS01,GS05",CA,California,-08:00, 
 ,92617402316,16 Alcott Ct, ,S,C005,Irvine,Irvine, ,US,United States of America,R,9,16, ,33.639791,-117.841042,1995353824, , , ,92617-4023, ,1, ,"AC01,AS01,GS05",CA,California,-08:00, 
 ,92617402302,2 Alcott Ct, ,S,C005,Irvine,Irvine, ,US,United States of America,R,4,02, ,33.640339,-117.841240,2160717701, , , ,92617-4023, ,1, ,"AC01,AS01,GS05",CA,California,-08:00, 
 ,92617404406,6 Thompson Ct, ,S,C003,Irvine,Irvine, ,US,United States of America,R,7,06, ,33.640772,-117.839204,1523737417, , , ,92617-4044, ,1, ,"AC01,AS01,GS05",CA,California,-08:00, 
 ,92617408908,8 Murasaki St, ,S,C004,Irvine,Irvine, ,US,United States of America,R,6,08, ,33.640986,-117.835165,2206910101, , , ,92617-4089, ,1, ,"AC01,AS01,GS05",CA,California,-08:00, 
 ,92617403524,24 Los Trancos Dr, ,S,C005,Irvine,Irvine, ,US,United States of America,R,7,24, ,33.637711,-117.843070,2234327737, , , ,92617-4035, ,1, ,"AC01,AS01,GS05",CA,California,-08:00, 
 ,92617409505,5 Fuertes, ,S,C004,Irvine,Irvine, ,US,United States of America,R,2,05, ,33.639627,-117.835100,1721738461, , , ,92617-4095, ,1, ,"AC01,AS01,GS05",CA,California,-08:00, 
 ,92617402916,16 Dickens Ct, ,S,C005,Irvine,Irvine, ,US,United States of America,R,3,16, ,33.639010,-117.842341,2349854678, , , ,92617-4029, ,1, ,"AC01,AS01,GS05",CA,California,-08:00, 
 ,92617403816,16 Newton Ct, ,S,C005,Irvine,Irvine, ,US,United States of America,R,3,16, ,33.639056,-117.839698,2825953285, , , ,92617-4038, ,1, ,"AC01,AS01,GS05",CA,California,-08:00, 
 ,92617404416,16 Thompson Ct, ,S,C003,Irvine,Irvine, ,US,United States of America,R,6,16, ,33.640452,-117.839867,2044663083, , , ,92617-4044, ,1, ,"AC01,AS01,GS05",CA,California,-08:00, 
 ,92617403818,18 Newton Ct, ,S,C005,Irvine,Irvine, ,US,United States of America,R,1,18, ,33.639031,-117.839534,2159492756, , , ,92617-4038, ,1, ,"AC01,AS01,GS05",CA,California,-08:00, 
 ,92617400012,12 Russell Ct, ,S,C003,Irvine,Irvine, ,US,United States of America,R,8,12, ,33.641538,-117.839424,2344261830, , , ,92617-4000, ,1, ,"AC01,AS01,GS05",CA,California,-08:00, 
 ,92617407205,5 Gabrielino Dr, ,S,C004,Irvine,Irvine, ,US,United States of America,R,7,05, ,33.642187,-117.837236,2269452886, , , ,92617-4072, ,1, ,"AC01,AS01,GS05",CA,California,-08:00, 
 ,92617410301,801 Gabrielino Dr, ,S,C004,Irvine,Irvine, ,US,United States of America,R,6,01, ,33.641575,-117.836304,1962596279, , , ,92617-4103, ,1, ,"AC01,AS01,GS05",CA,California,-08:00, 
 ,92617404418,18 Thompson Ct, ,S,C003,Irvine,Irvine, ,US,United States of America,R,4,18, ,33.640306,-117.839803,2283791160, , , ,92617-4044, ,1, ,"AC01,AS01,GS05",CA,California,-08:00, 
 ,92617404009,9 Owen Ct, ,S,C004,Irvine,Irvine, ,US,United States of America,R,8,09, ,33.639119,-117.838095,2300674327, , , ,92617-4040, ,1, ,"AC01,AS01,GS05",CA,California,-08:00, 
